{
    "links": {
        "self": "http://www.neowsapp.com/rest/v1/neo/3778083?api_key=iIulBulltgU6a56xZRHN4H3l9WmuAYTsLGpBGhQ2"
    },
    "id": "3778083",
    "neo_reference_id": "3778083",
    "name": "(2017 OP1)",
    "designation": "2017 OP1",
    "nasa_jpl_url": "http://ssd.jpl.nasa.gov/sbdb.cgi?sstr=3778083",
    "absolute_magnitude_h": 25.9,
    "estimated_diameter": {
        "kilometers": {
            "estimated_diameter_min": 0.0175612318,
            "estimated_diameter_max": 0.0392681082
        },
        "meters": {
            "estimated_diameter_min": 17.561231848,
            "estimated_diameter_max": 39.2681081809
        },
        "miles": {
            "estimated_diameter_min": 0.0109120402,
            "estimated_diameter_max": 0.0244000636
        },
        "feet": {
            "estimated_diameter_min": 57.6155918963,
            "estimated_diameter_max": 128.8323800441
        }
    },
    "is_potentially_hazardous_asteroid": false,
    "close_approach_data": [
        {
            "close_approach_date": "1912-04-24",
            "close_approach_date_full": "1912-Apr-24 00:48",
            "epoch_date_close_approach": -1820531520000,
            "relative_velocity": {
                "kilometers_per_second": "19.6785219029",
                "kilometers_per_hour": "70842.6788505937",
                "miles_per_hour": "44018.8856446925"
            },
            "miss_distance": {
                "astronomical": "0.4166703839",
                "lunar": "162.0847793371",
                "kilometers": "62333001.923522293",
                "miles": "38731931.3717539234"
            },
            "orbiting_body": "Earth"
        },
        {
            "close_approach_date": "2017-07-19",
            "close_approach_date_full": "2017-Jul-19 19:35",
            "epoch_date_close_approach": 1500492900000,
            "relative_velocity": {
                "kilometers_per_second": "8.6661168409",
                "kilometers_per_hour": "31198.0206271284",
                "miles_per_hour": "19385.2367613399"
            },
            "miss_distance": {
                "astronomical": "0.0227082367",
                "lunar": "8.8335040763",
                "kilometers": "3397103.841775829",
                "miles": "2110862.4452872802"
            },
            "orbiting_body": "Earth"
        }
    ],
    "orbital_data": {
        "orbit_id": "2",
        "orbit_determination_date": "2017-08-01 06:18:31",
        "first_observation_date": "2017-07-23",
        "last_observation_date": "2017-07-30",
        "data_arc_in_days": 7,
        "observations_used": 23,
        "orbit_uncertainty": "8",
        "minimum_orbit_intersection": ".0218753",
        "jupiter_tisserand_invariant": "3.702",
        "epoch_osculation": "2457962.5",
        "eccentricity": ".4911466706048481",
        "semi_major_axis": "1.973418390593912",
        "inclination": "6.652626388367805",
        "ascending_node_longitude": "123.8327882610637",
        "orbital_period": "1012.57496019547",
        "perihelion_distance": "1.004180518343334",
        "perihelion_argument": "149.1855724473661",
        "aphelion_distance": "2.942656262844489",
        "perihelion_time": "2457934.087160506745",
        "mean_anomaly": "10.10159506175942",
        "mean_motion": ".3555292340337004",
        "equinox": "J2000",
        "orbit_class": {
            "orbit_class_type": "APO",
            "orbit_class_description": "Near-Earth asteroid orbits which cross the Earth’s orbit similar to that of 1862 Apollo",
            "orbit_class_range": "a (semi-major axis) > 1.0 AU; q (perihelion) < 1.017 AU"
        }
    },
    "is_sentry_object": false
}